{
  "type": "FeatureCollection",
  "features": [
    {
      "type": "Feature",
      "properties": {
        "norad_id": 40376,
        "name": "SMAP",
        "group": "resource",
        "lat": -65.20379586024683,
        "lon": 18.31646888658837,
        "alt_km": 690.3798344826919,
        "timestamp": "2025-12-21T16:47:54.386006+00:00",
        "meta_object_name": "SMAP",
        "meta_object_id": "2015-003A",
        "meta_epoch": "2025-12-21T12:10:43.578912",
        "meta_mean_motion": 14.63355199,
        "meta_eccentricity": 0.0001229,
        "meta_inclination": 98.1288,
        "meta_ra_of_asc_node": 0.1049,
        "meta_arg_of_pericenter": 91.1808,
        "meta_mean_anomaly": 268.9535,
        "meta_ephemeris_type": 0,
        "meta_classification_type": "U",
        "meta_norad_cat_id": 40376,
        "meta_element_set_no": 999,
        "meta_rev_at_epoch": 58163,
        "meta_bstar": 9.086e-05,
        "meta_mean_motion_dot": 4.22e-06,
        "meta_mean_motion_ddot": 0,
        "tle_line1": "1 40376U 15003A   25355.50744883  .00000422  00000+0  90860-4 0  9992",
        "tle_line2": "2 40376  98.1288   0.1049 0001229  91.1808 268.9535 14.63355199581630"
      },
      "geometry": {
        "type": "Point",
        "coordinates": [
          18.31646888658837,
          -65.20379586024683
        ]
      }
    },
    {
      "type": "Feature",
      "properties": {
        "norad_id": 40536,
        "name": "KOMPSAT-3A",
        "group": "resource",
        "lat": 64.82857945534248,
        "lon": -46.14298416988484,
        "alt_km": 424.43191895483415,
        "timestamp": "2025-12-21T16:47:54.386017+00:00",
        "meta_object_name": "KOMPSAT-3A",
        "meta_object_id": "2015-014A",
        "meta_epoch": "2025-12-21T11:50:54.378816",
        "meta_mean_motion": 15.44241535,
        "meta_eccentricity": 0.0005524,
        "meta_inclination": 97.6795,
        "meta_ra_of_asc_node": 330.3253,
        "meta_arg_of_pericenter": 107.3784,
        "meta_mean_anomaly": 252.8068,
        "meta_ephemeris_type": 0,
        "meta_classification_type": "U",
        "meta_norad_cat_id": 40536,
        "meta_element_set_no": 999,
        "meta_rev_at_epoch": 59430,
        "meta_bstar": 0.00034447,
        "meta_mean_motion_dot": 0.00015754,
        "meta_mean_motion_ddot": 0,
        "tle_line1": "1 40536U 15014A   25355.49368494  .00015754  00000+0  34447-3 0  9992",
        "tle_line2": "2 40536  97.6795 330.3253 0005524 107.3784 252.8068 15.44241535594304"
      },
      "geometry": {
        "type": "Point",
        "coordinates": [
          -46.14298416988484,
          64.82857945534248
        ]
      }
    },
    {
      "type": "Feature",
      "properties": {
        "norad_id": 40697,
        "name": "SENTINEL-2A",
        "group": "resource",
        "lat": -14.036161986756078,
        "lon": -114.05451595672152,
        "alt_km": 793.8244317273848,
        "timestamp": "2025-12-21T16:47:54.386027+00:00",
        "meta_object_name": "SENTINEL-2A",
        "meta_object_id": "2015-028A",
        "meta_epoch": "2025-12-21T12:32:15.479232",
        "meta_mean_motion": 14.30809738,
        "meta_eccentricity": 0.0001085,
        "meta_inclination": 98.5742,
        "meta_ra_of_asc_node": 67.932,
        "meta_arg_of_pericenter": 87.2657,
        "meta_mean_anomaly": 272.865,
        "meta_ephemeris_type": 0,
        "meta_classification_type": "U",
        "meta_norad_cat_id": 40697,
        "meta_element_set_no": 999,
        "meta_rev_at_epoch": 54832,
        "meta_bstar": 0.00019105,
        "meta_mean_motion_dot": 4.57e-06,
        "meta_mean_motion_ddot": 0,
        "tle_line1": "1 40697U 15028A   25355.52240138  .00000457  00000+0  19105-3 0  9991",
        "tle_line2": "2 40697  98.5742  67.9320 0001085  87.2657 272.8650 14.30809738548324"
      },
      "geometry": {
        "type": "Point",
        "coordinates": [
          -114.05451595672152,
          -14.036161986756078
        ]
      }
    },
    {
      "type": "Feature",
      "properties": {
        "norad_id": 40701,
        "name": "GAOFEN-8",
        "group": "resource",
        "lat": 63.65144750508788,
        "lon": 10.11119529895937,
        "alt_km": 435.23064516694376,
        "timestamp": "2025-12-21T16:47:54.386038+00:00",
        "meta_object_name": "GAOFEN-8",
        "meta_object_id": "2015-030A",
        "meta_epoch": "2025-12-21T13:10:43.745088",
        "meta_mean_motion": 15.38824071,
        "meta_eccentricity": 0.0012036,
        "meta_inclination": 97.6903,
        "meta_ra_of_asc_node": 174.1203,
        "meta_arg_of_pericenter": 108.7515,
        "meta_mean_anomaly": 251.5037,
        "meta_ephemeris_type": 0,
        "meta_classification_type": "U",
        "meta_norad_cat_id": 40701,
        "meta_element_set_no": 999,
        "meta_rev_at_epoch": 58406,
        "meta_bstar": 0.00042837,
        "meta_mean_motion_dot": 0.00016414,
        "meta_mean_motion_ddot": 0,
        "tle_line1": "1 40701U 15030A   25355.54911742  .00016414  00000+0  42837-3 0  9996",
        "tle_line2": "2 40701  97.6903 174.1203 0012036 108.7515 251.5037 15.38824071584060"
      },
      "geometry": {
        "type": "Point",
        "coordinates": [
          10.11119529895937,
          63.65144750508788
        ]
      }
    },
    {
      "type": "Feature",
      "properties": {
        "norad_id": 40718,
        "name": "CARBONITE 1 (CBNT-1)",
        "group": "resource",
        "lat": 44.32684770910834,
        "lon": 168.8152295433856,
        "alt_km": 619.9269568136506,
        "timestamp": "2025-12-21T16:47:54.386048+00:00",
        "meta_object_name": "CARBONITE 1 (CBNT-1)",
        "meta_object_id": "2015-032D",
        "meta_epoch": "2025-12-21T11:44:16.205280",
        "meta_mean_motion": 14.82781907,
        "meta_eccentricity": 0.0015035,
        "meta_inclination": 97.6396,
        "meta_ra_of_asc_node": 176.1472,
        "meta_arg_of_pericenter": 152.8178,
        "meta_mean_anomaly": 207.3827,
        "meta_ephemeris_type": 0,
        "meta_classification_type": "U",
        "meta_norad_cat_id": 40718,
        "meta_element_set_no": 999,
        "meta_rev_at_epoch": 56300,
        "meta_bstar": 0.00021502,
        "meta_mean_motion_dot": 1.691e-05,
        "meta_mean_motion_ddot": 0,
        "tle_line1": "1 40718U 15032D   25355.48907645  .00001691  00000+0  21502-3 0  9993",
        "tle_line2": "2 40718  97.6396 176.1472 0015035 152.8178 207.3827 14.82781907563006"
      },
      "geometry": {
        "type": "Point",
        "coordinates": [
          168.8152295433856,
          44.32684770910834
        ]
      }
    },
    {
      "type": "Feature",
      "properties": {
        "norad_id": 40878,
        "name": "YAOGAN-27",
        "group": "resource",
        "lat": 44.389747239455176,
        "lon": 174.9630933240112,
        "alt_km": 1199.5874438083038,
        "timestamp": "2025-12-21T16:47:54.386059+00:00",
        "meta_object_name": "YAOGAN-27",
        "meta_object_id": "2015-040A",
        "meta_epoch": "2025-12-21T12:28:00.478272",
        "meta_mean_motion": 13.16059293,
        "meta_eccentricity": 0.0007586,
        "meta_inclination": 100.1006,
        "meta_ra_of_asc_node": 344.7422,
        "meta_arg_of_pericenter": 265.218,
        "meta_mean_anomaly": 94.8067,
        "meta_ephemeris_type": 0,
        "meta_classification_type": "U",
        "meta_norad_cat_id": 40878,
        "meta_element_set_no": 999,
        "meta_rev_at_epoch": 49429,
        "meta_bstar": -0.00092294,
        "meta_mean_motion_dot": -3.93e-06,
        "meta_mean_motion_ddot": 0,
        "tle_line1": "1 40878U 15040A   25355.51944998 -.00000393  00000+0 -92294-3 0  9991",
        "tle_line2": "2 40878 100.1006 344.7422 0007586 265.2180  94.8067 13.16059293494294"
      },
      "geometry": {
        "type": "Point",
        "coordinates": [
          174.9630933240112,
          44.389747239455176
        ]
      }
    },
    {
      "type": "Feature",
      "properties": {
        "norad_id": 40894,
        "name": "GAOFEN-9 01",
        "group": "resource",
        "lat": -44.62411363127273,
        "lon": 41.89427306711981,
        "alt_km": 615.9989319733904,
        "timestamp": "2025-12-21T16:47:54.386069+00:00",
        "meta_object_name": "GAOFEN-9 01",
        "meta_object_id": "2015-047A",
        "meta_epoch": "2025-12-21T12:08:27.199104",
        "meta_mean_motion": 14.82442218,
        "meta_eccentricity": 0.0027679,
        "meta_inclination": 97.6531,
        "meta_ra_of_asc_node": 34.0824,
        "meta_arg_of_pericenter": 6.0658,
        "meta_mean_anomaly": 354.0886,
        "meta_ephemeris_type": 0,
        "meta_classification_type": "U",
        "meta_norad_cat_id": 40894,
        "meta_element_set_no": 999,
        "meta_rev_at_epoch": 55386,
        "meta_bstar": 0.00011761,
        "meta_mean_motion_dot": 8.98e-06,
        "meta_mean_motion_ddot": 0,
        "tle_line1": "1 40894U 15047A   25355.50587036  .00000898  00000+0  11761-3 0  9999",
        "tle_line2": "2 40894  97.6531  34.0824 0027679   6.0658 354.0886 14.82442218553862"
      },
      "geometry": {
        "type": "Point",
        "coordinates": [
          41.89427306711981,
          -44.62411363127273
        ]
      }
    }
  ]
}